ONEWEB-0578             
1 56067U 23043X   25212.75640206 -.00000139  00000+0 -36758-3 0  9994
2 56067  87.9271 307.9045 0001808 103.8489 256.2846 13.21826375115905
ONEWEB-0579             
1 56068U 23043Y   25212.82263945  .00000034  00000+0  50782-4 0  9990
2 56068  87.9271 307.8771 0002219  95.2492 264.8896 13.21826740115924
ONEWEB-0581             
1 56069U 23043Z   25213.50704863  .00000095  00000+0  21594-3 0  9991
2 56069  87.9040 292.5112 0002438 105.5542 254.5858 13.16595261117800
ONEWEB-0609             
1 56070U 23043AA  25213.36269304  .00000209  00000+0  52238-3 0  9999
2 56070  87.9083 322.9984 0001867  97.1736 262.9606 13.15550178115292
ONEWEB-0613             
1 56071U 23043AB  25212.74948260  .00000114  00000+0  26848-3 0  9999
2 56071  87.9091 323.1328 0002134  94.7302 265.4072 13.15548108114303
ONEWEB-0630             
1 56072U 23043AC  25212.82077361 -.00000045  00000+0 -15337-3 0  9990
2 56072  87.9095 323.0950 0002085  93.0022 267.1347 13.15546459114305
ONEWEB-0632             
1 56073U 23043AD  25212.81601751  .00000747  00000+0  19507-2 0  9995
2 56073  87.9086 323.1156 0002187 100.7659 259.3717 13.15546799114301
ONEWEB-0633             
1 56074U 23043AE  25213.11391447 -.00000979  00000+0 -26347-2 0  9997
2 56074  87.9076 323.0225 0001981  85.8569 274.2788 13.15551536115233
